NORAD_CAT_ID,OBJECT_NAME,OBJECT_TYPE,EPOCH,MEAN_MOTION,ECCENTRICITY,INCLINATION,RA_OF_ASC_NODE,ARG_OF_PERICENTER,MEAN_ANOMALY,BSTAR,MEAN_MOTION_DOT,MEAN_MOTION_DDOT,TLE_LINE0,TLE_LINE1,TLE_LINE2,SEMIMAJOR_AXIS,PERIOD,APOGEE,PERIGEE,DECAYED
52993.0,STARLINK-4264,PAYLOAD,2022-08-04 22:00:00,15.73162437,0.0002243,53.219,239.2014,15.1867,11.9164,0.00051323,0.00071915,0.0,0 STARLINK-4264,1 52993U 22076H   22216.91667824  .00071915  00000-0  51323-3 0  9991,2 52993  53.2190 239.2014 0002243  15.1867  11.9164 15.73162437  1305,6728.002,91.535,351.376,348.358,0.0
52993.0,STARLINK-4264,PAYLOAD,2022-08-05 06:00:02,15.73223821,0.0002392,53.2192,237.5534,16.527,99.5528,-5.055e-05,-7.718e-05,0.0,0 STARLINK-4264,1 52993U 22076H   22217.25002315 -.00007718  00000-0 -50550-4 0  9991,2 52993  53.2192 237.5534 0002392  16.5270  99.5528 15.73223821  5016,6727.8269999999975,91.532,351.302,348.083,0.0
52993.0,STARLINK-4264,PAYLOAD,2022-08-05 14:00:01,15.73227466,0.0002578,53.2187,235.9048,18.1915,186.8479,-0.00032304,-0.00045774,0.0,0 STARLINK-4264,1 52993U 22076H   22217.58335648 -.00045774  00000-0 -32304-3 0  9995,2 52993  53.2187 235.9048 0002578  18.1915 186.8479 15.73227466  1304,6727.816999999999,91.532,351.416,347.94699999999995,0.0
52993.0,STARLINK-4264,PAYLOAD,2022-08-05 22:00:00,15.73170142,0.0002396,53.219,234.2533,23.3403,270.5887,0.0005852,0.00082216,0.0,0 STARLINK-4264,1 52993U 22076H   22217.91667824  .00082216  00000-0  58520-3 0  9994,2 52993  53.2190 234.2533 0002396  23.3403 270.5887 15.73170142  1309,6727.98,91.535,351.457,348.233,0.0
52993.0,STARLINK-4264,PAYLOAD,2022-08-06 14:00:01,15.73235748,0.0002604,53.2183,230.9564,16.6349,95.1799,-0.0008662,-0.00120669,0.0,0 STARLINK-4264,1 52993U 22076H   22218.58334491 -.00120669  00000-0 -86620-3 0  9998,2 52993  53.2183 230.9564 0002604  16.6349  95.1799 15.73235748  1301,6727.793000000002,91.531,351.41,347.906,0.0
52993.0,STARLINK-4264,PAYLOAD,2022-08-06 22:00:00,15.7311836,0.0002299,53.2182,229.3052,14.7504,185.9969,0.00055108,0.00077167,0.0,0 STARLINK-4264,1 52993U 22076H   22218.91667824  .00077167  00000-0  55108-3 0  9993,2 52993  53.2182 229.3052 0002299  14.7504 185.9969 15.73118360  1303,6728.128000000002,91.538,351.54,348.446,0.0
52993.0,STARLINK-4264,PAYLOAD,2022-08-07 14:00:01,15.73190077,0.0002586,53.2176,226.0087,14.75,3.7469,0.00017034,0.00023343,0.0,0 STARLINK-4264,1 52993U 22076H   22219.58334491  .00023343  00000-0  17034-3 0  9991,2 52993  53.2176 226.0087 0002586  14.7500   3.7469 15.73190077  5382,6727.9230000000025,91.534,351.528,348.0490000000001,0.0
52993.0,STARLINK-4264,PAYLOAD,2022-08-07 22:00:00,15.73194605,0.0002311,53.2179,224.3573,17.6406,89.7995,0.00059943,0.0008433999999999,0.0,0 STARLINK-4264,1 52993U 22076H   22219.91667824  .00084340  00000-0  59943-3 0  9996,2 52993  53.2179 224.3573 0002311  17.6406  89.7995 15.73194605  1306,6727.911,91.533,351.33,348.221,0.0
52993.0,STARLINK-4264,PAYLOAD,2022-08-08 06:00:00,15.73293789,0.0002506999999999,53.218,222.7095,16.582,179.8307,-0.00053938,-0.00075957,0.0,0 STARLINK-4264,1 52993U 22076H   22220.25001157 -.00075957  00000-0 -53938-3 0  9990,2 52993  53.2180 222.7095 0002507  16.5820 179.8307 15.73293789  5488,6727.628000000002,91.528,351.17900000000014,347.806,0.0
52993.0,STARLINK-4264,PAYLOAD,2022-08-08 14:00:01,15.73270968,0.000256,53.2176,221.0599,14.3724,271.1222,-1.5228e-06,-8.37e-06,0.0,0 STARLINK-4264,1 52993U 22076H   22220.58335648 -.00000837  00000-0 -15228-5 0  9998,2 52993  53.2176 221.0599 0002560  14.3724 271.1222 15.73270968  1305,6727.693,91.529,351.28,347.836,0.0
52993.0,STARLINK-4264,PAYLOAD,2022-08-08 22:00:00,15.73267668,0.000237,53.2176,219.4087,20.2365,354.215,-0.00037379,-0.00052911,0.0,0 STARLINK-4264,1 52993U 22076H   22220.91667824 -.00052911  00000-0 -37379-3 0  9998,2 52993  53.2176 219.4087 0002370  20.2365 354.2150 15.73267668  1300,6727.7019999999975,91.529,351.162,347.973,0.0
52993.0,STARLINK-4264,PAYLOAD,2022-08-09 06:00:00,15.73222225,0.0002533,53.2172,217.7612,18.5982,84.82799999999997,-0.0008757,-0.00121896,0.0,0 STARLINK-4264,1 52993U 22076H   22221.25001157 -.00121896  00000-0 -87570-3 0  9994,2 52993  53.2172 217.7612 0002533  18.5982  84.8280 15.73222225  5648,6727.831999999999,91.532,351.401,347.99300000000005,0.0
52993.0,STARLINK-4264,PAYLOAD,2022-08-09 14:00:01,15.73167114,0.0002539,53.2169,216.1117,16.3257,175.9848,-0.00039127,-0.00055108,0.0,0 STARLINK-4264,1 52993U 22076H   22221.58334491 -.00055108  00000-0 -39127-3 0  9997,2 52993  53.2169 216.1117 0002539  16.3257 175.9848 15.73167114  1300,6727.989000000001,91.535,351.56199999999984,348.146,0.0
52993.0,STARLINK-4264,PAYLOAD,2022-08-09 22:00:00,15.73083121,0.0002387,53.2172,214.4606,22.6927,258.4846,0.00051783,0.00072323,0.0,0 STARLINK-4264,1 52993U 22076H   22221.91667824  .00072323  00000-0  51783-3 0  9991,2 52993  53.2172 214.4606 0002387  22.6927 258.4846 15.73083121  5756,6728.228,91.54,351.699,348.487,0.0
52993.0,STARLINK-4264,PAYLOAD,2022-08-10 14:00:01,15.73178631,0.0002647,53.2172,211.1635,22.35,76.5098,0.00010361,0.00013932,0.0,0 STARLINK-4264,1 52993U 22076H   22222.58334491  .00013932  00000-0  10361-3 0  9994,2 52993  53.2172 211.1635 0002647  22.3500  76.5098 15.73178631  1301,6727.956,91.534,351.602,348.04,0.0
52993.0,STARLINK-4264,PAYLOAD,2022-08-10 20:00:01,15.73160649,0.0002435,53.2173,209.9252,24.4066,51.1375,0.00065827,0.00092638,0.0,0 STARLINK-4264,1 52993U 22076H   22222.83334491  .00092638  00000-0  65827-3 0  9999,2 52993  53.2173 209.9252 0002435  24.4066  51.1375 15.73160649  5892,6728.007,91.535,351.511,348.2340000000001,0.0
52993.0,STARLINK-4264,PAYLOAD,2022-08-10 22:00:00,15.73183094,0.0002409,53.2173,209.5127,25.622,162.1433,0.00052307,0.00073385,0.0,0 STARLINK-4264,1 52993U 22076H   22222.91667824  .00073385  00000-0  52307-3 0  9994,2 52993  53.2173 209.5127 0002409  25.6220 162.1433 15.73183094  1304,6727.943,91.534,351.42900000000014,348.18800000000016,0.0
52993.0,STARLINK-4264,PAYLOAD,2022-08-11 06:00:02,15.73226876,0.0002605,53.2171,207.8653,22.6965,254.0648,-0.0004887,-0.00068741,0.0,0 STARLINK-4264,1 52993U 22076H   22223.25002315 -.00068741  00000-0 -48870-3 0  9992,2 52993  53.2171 207.8653 0002605  22.6965 254.0648 15.73226876  5969,6727.819,91.532,351.436,347.931,0.0
52993.0,STARLINK-4264,PAYLOAD,2022-08-11 14:00:01,15.73205863,0.000252,53.2169,206.2153,19.9142,345.712,9.5735e-05,0.00012839,0.0,0 STARLINK-4264,1 52993U 22076H   22223.58334491  .00012839  00000-0  95735-4 0  9999,2 52993  53.2169 206.2153 0002520  19.9142 345.7120 15.73205863  1306,6727.878000000002,91.533,351.439,348.048,0.0
52993.0,STARLINK-4264,PAYLOAD,2022-08-11 22:00:00,15.73212308,0.0002305,53.2174,204.5642,23.6769,70.8899,0.00055002,0.00077331,0.0,0 STARLINK-4264,1 52993U 22076H   22223.91667824  .00077331  00000-0  55002-3 0  9995,2 52993  53.2174 204.5642 0002305  23.6769  70.8899 15.73212308  6063,6727.86,91.532,351.276,348.1740000000001,0.0
52993.0,STARLINK-4264,PAYLOAD,2022-08-12 06:00:00,15.73267675,0.0002534,53.2176,202.9167,19.3929,164.1413,-0.00048842,-0.0006882,0.0,0 STARLINK-4264,1 52993U 22076H   22224.25001157 -.00068820  00000-0 -48842-3 0  9993,2 52993  53.2176 202.9167 0002534  19.3929 164.1413 15.73267675  6115,6727.7019999999975,91.529,351.272,347.862,0.0
52993.0,STARLINK-4264,PAYLOAD,2022-08-12 14:00:01,15.73279378,0.0002386,53.2176,201.2664,14.9625,257.5599,-0.00031382,-0.00044588,0.0,0 STARLINK-4264,1 52993U 22076H   22224.58334491 -.00044588  00000-0 -31382-3 0  9995,2 52993  53.2176 201.2664 0002386  14.9625 257.5599 15.73279378  1309,6727.669,91.529,351.139,347.92900000000014,0.0
52993.0,STARLINK-4264,PAYLOAD,2022-08-12 22:00:01,15.7322805,0.0002208,53.2177,199.6137,16.7994,344.785,7.3736e-05,9.752e-05,0.0,0 STARLINK-4264,1 52993U 22076H   22224.91668981  .00009752  00000-0  73736-4 0  9998,2 52993  53.2177 199.6137 0002208  16.7994 344.7850 15.73228050  1307,6727.815,91.532,351.166,348.195,0.0
52993.0,STARLINK-4264,PAYLOAD,2022-08-13 06:00:02,15.73399518,0.0002579,53.2175,197.9576,16.1456,74.3769,-0.0052565,-0.00687145,0.0,0 STARLINK-4264,1 52993U 22076H   22225.25002315 -.00687145  00000-0 -52565-2 0  9994,2 52993  53.2175 197.9576 0002579  16.1456  74.3769 15.73399518  6275,6727.326,91.522,350.926,347.456,0.0
52993.0,STARLINK-4264,PAYLOAD,2022-08-13 14:00:01,15.73074489,0.0002183,53.2169,196.2977,22.1738,157.1143,-0.0059968,-0.00765635,0.0,0 STARLINK-4264,1 52993U 22076H   22225.58334491 -.00765635  00000-0 -59968-2 0  9998,2 52993  53.2169 196.2977 0002183  22.1738 157.1143 15.73074489  1308,6728.253000000002,91.54,351.587,348.649,0.0
52993.0,STARLINK-4264,PAYLOAD,2022-08-13 22:00:00,15.72518976,0.0002125,53.2173,194.6429,21.6171,246.1323,-0.0085877,-0.01053693,0.0,0 STARLINK-4264,1 52993U 22076H   22225.91667824 -.01053693  00000-0 -85877-2 0  9997,2 52993  53.2173 194.6429 0002125  21.6171 246.1323 15.72518976  1300,6729.8380000000025,91.573,353.1330000000001,350.272,0.0
52993.0,STARLINK-4264,PAYLOAD,2022-08-14 14:00:01,15.70999761,0.0001865,53.2174,191.3457,26.0957,56.0332,-0.0091627999999999,-0.01053591,0.0,0 STARLINK-4264,1 52993U 22076H   22226.58334491 -.01053591  00000-0 -91628-2 0  9990,2 52993  53.2174 191.3457 0001865  26.0957  56.0332 15.70999761  1308,6734.175,91.661,357.296,354.785,0.0
52993.0,STARLINK-4264,PAYLOAD,2022-08-14 22:00:00,15.70239099,0.0002095,53.2177,189.6986,26.0963,141.8537,-0.0094284,-0.0105032999999999,0.0,0 STARLINK-4264,1 52993U 22076H   22226.91667824 -.01050330  00000-0 -94284-2 0  9995,2 52993  53.2177 189.6986 0002095  26.0963 141.8537 15.70239099  1302,6736.35,91.706,359.626,356.80400000000014,0.0
52993.0,STARLINK-4264,PAYLOAD,2022-08-15 14:00:01,15.6872187,0.0001382,53.2173,186.4122,32.4584,304.3946,-0.010085,-0.01053752,0.0,0 STARLINK-4264,1 52993U 22076H   22227.58334491 -.01053752  00000-0 -10085-1 0  9997,2 52993  53.2173 186.4122 0001382  32.4584 304.3946 15.68721870  1303,6740.693,91.794,363.489,361.626,0.0
